QIANFAN-65              
1 62795U 25016L   25336.06529424  .00000134  00000+0  18923-3 0  9997
2 62795  88.9756 104.1615 0014046  20.9873 339.1852 13.50980624 45802
QIANFAN-66              
1 62796U 25016M   25336.09405074  .00000145  00000+0  20643-3 0  9999
2 62796  88.9776 104.1266 0015016  15.9826 344.1795 13.50984686 45856
QIANFAN-67              
1 62797U 25016N   25336.09830561  .00000139  00000+0  19581-3 0  9995
2 62797  88.9766 104.1528 0015190  22.8248 337.3575 13.50977543 45826
QIANFAN-68              
1 62798U 25016P   25336.09001900  .00000137  00000+0  19383-3 0  9991
2 62798  88.9770 104.1984 0015190  21.0939 339.0835 13.50979850 45805
QIANFAN-69              
1 62799U 25016Q   25336.10653619  .00000136  00000+0  19149-3 0  9993
2 62799  88.9748 104.0684 0015972  21.8259 338.3569 13.50982861 45844
QIANFAN-70              
1 62800U 25016R   25336.12288712  .00000144  00000+0  20370-3 0  9993
2 62800  88.9769 104.2030 0015301  12.3517 347.8006 13.50973550 45807
QIANFAN-71              
1 62801U 25016S   25336.11878318  .00000136  00000+0  19234-3 0  9998
2 62801  88.9763 104.1835 0015999  25.2821 334.9110 13.50980789 45803
QIANFAN-72              
1 62802U 25016T   25336.06119497  .00000146  00000+0  20711-3 0  9992
2 62802  88.9754 104.2039 0019447  31.4930 328.7381 13.50980741 45789
